{"fetched_at":"2026-03-30T13:17:50Z","count":15418,"tles":[{"name":"STARLINK-35892","line1":"1 67115U 25299P   26087.61723150  .00043274  00000+0  15692-2 0  9999","line2":"2 67115  43.0012  61.8693 0000454 249.2890 110.7913 15.27656813 16016","category":"Starlink"}]}